ARIANE 5 R/B            
1 28499U 04049H   26008.06511278  .00001433  00000+0  16445-3 0  9998
2 28499  98.2539 174.2944 0084233 186.7790 173.2292 14.85101738136799
CZ-2D R/B               
1 28738U 05024B   26007.99353955  .00030450  00000+0  45398-3 0  9995
2 28738  97.3626  21.1595 0003367 224.1028 135.9958 15.55035764130335
ALOS (DAICHI)           
1 28931U 06002A   26005.59500709  .00002125  00000+0  36611-3 0  9998
2 28931  98.1128 321.9191 0002014 101.4176 258.7256 14.69578072 64214
H-2A R/B                
1 28932U 06002B   26007.94285014  .00008570  00000+0  44376-3 0  9996
2 28932  98.2331 149.8451 0054625  88.1246 272.6239 15.15180810 85234
RESURS-DK 1             
1 29228U 06021A   26008.15638924  .00002511  00000+0  15067-3 0  9996
2 29228  69.9340  33.5583 0006566 237.1653 122.8881 15.12343098 78374
CZ-4B R/B               
1 29507U 06046C   26008.10485972  .00003966  00000+0  20578-3 0  9999
2 29507  97.5697  53.1716 0035216 116.3514 244.1342 15.16190716 50865
CZ-2C R/B               
1 31114U 07010B   26007.92695492  .00000150  00000+0  87483-4 0  9998
2 31114  98.3972 124.2602 0060060 110.6252 250.1381 14.20222385971091
COSMO-SKYMED 1          
1 31598U 07023A   26008.14355846  .00004127  00000+0  37313-3 0  9993
2 31598  97.8847 198.7201 0001619  83.7974 276.3431 14.96008857  5856
COSMOS 2428             
1 31792U 07029A   26008.14584740  .00000320  00000+0  19773-3 0  9993
2 31792  70.9387 330.4374 0005209 347.4551  12.6439 14.12904727955547
SL-16 R/B               
1 31793U 07029B   26008.19309814 -.00000065  00000+0 -90671-5 0  9992
2 31793  70.9774 299.5510 0002182 273.1245 188.7548 14.14825781956818
KORONAS-FOTON           
1 33504U 09003A   26008.17493058  .00009732  00000+0  22858-3 0  9998
2 33504  82.4323 338.7013 0012075  26.1176 334.0677 15.41781473936416
CZ-2C R/B               
1 37731U 11030B   26007.87619679  .00001450  00000+0  18979-3 0  9990
2 37731  97.8449 326.4108 0052475 186.7057 231.3210 14.80994325781097
H-2A R/B                
1 38341U 12025E   26007.95158308  .00002549  00000+0  23677-3 0  9990
2 38341  98.4635 330.2107 0045565 149.9427 210.4421 14.94638647739143
SHIJIAN-16 (SJ-16)      
1 39358U 13057A   26008.22224579  .00002445  00000+0  24257-3 0  9990
2 39358  74.9743 299.5427 0017888 258.5288 101.3891 14.92113234662481
SL-4 R/B                
1 39679U 14021B   26008.14332319  .00011113  00000+0  26193-3 0  9994
2 39679  51.6071 272.2147 0099753 241.8466 117.2411 15.37381090646959
ALOS-2                  
1 39766U 14029A   26008.18749083  .00000682  00000+0  98150-4 0  9995
2 39766  97.9215 107.6556 0001408  98.5996 261.5375 14.79462783627921
YAOGAN-29               
1 41038U 15069A   26008.20294682  .00000068  00000+0  15021-4 0  9992
2 41038  98.0195  36.4566 0001862 137.8035 222.3322 14.82916654546911
ASTRO-H (HITOMI)        
1 41337U 16012A   26008.14101390  .00002896  00000+0  17019-3 0  9998
2 41337  31.0009  27.1442 0009548  84.8157 275.3571 15.09558502543071
HXMT (HUIYAN)           
1 42758U 17034A   26008.20405582  .00006254  00000+0  32162-3 0  9996
2 42758  43.0155 352.7353 0032948 214.1195 145.7535 15.16624395473357
CZ-2C R/B               
1 43521U 18054D   26008.12909844  .00141096  00000+0  68663-3 0  9998
2 43521  35.1340   1.1177 0010741  52.9705 307.2011 15.80910909419225
SAOCOM 1A               
1 43641U 18076A   26008.20352833  .00001512  00000+0  19644-3 0  9997
2 43641  97.8845 197.2406 0001322  83.4667 276.6697 14.82169523392404
H-2A R/B                
1 43682U 18084L   26008.10845669  .00018017  00000+0  47032-3 0  9994
2 43682  98.8764 212.6772 0025882 233.2542 126.6322 15.38553619396455
SAOCOM 1B               
1 46265U 20059A   26008.16722809  .00000357  00000+0  51359-4 0  9991
2 46265  97.8843 196.3043 0001473  82.3899 277.7481 14.82174349289787
CSS (TIANHE)            
1 48274U 21035A   26008.03110192  .00010759  00000+0  13156-3 0  9999
2 48274  41.4651 216.9599 0011174 241.9537 118.0172 15.60269105268139
COSMOS 2550             
1 48865U 21056A   26008.33074284 -.00000192  00000+0 -20453-7 0  9996
2 48865  67.1412 223.5040 0008382 268.8671  91.1523 15.33825640254200
CZ-2C R/B               
1 52794U 22058K   26008.12278260  .00030754  00000+0  52096-3 0  9991
2 52794  50.1898 268.8523 0043436 306.5937  53.1039 15.50157065200724
CZ-2C R/B               
1 54039U 22132E   26007.97882311  .00033908  00000+0  47114-3 0  9997
2 54039  97.2949   9.7132 0018043 322.4781  37.5214 15.56742561180911
GSLV R/B                
1 54149U 22138AN  26008.00614427  .00002252  00000+0  19586-3 0  9991
2 54149  87.3828 186.6757 0022420  18.3398 341.8636 14.96297902174858
XRISM                   
1 57800U 23137A   26008.13451397  .00005630  00000+0  32581-3 0  9990
2 57800  31.0030 315.0921 0007810 154.0075 206.0956 15.10700989128625
ACS3                    
1 59588U 24077B   26008.10044219  .00011946  00000+0  10064-1 0  9994
2 59588  97.2481 322.8153 0065344 272.1253  87.2427 13.86909715 85794
SZ-21 MODULE            
1 66515U 25246C   26007.86050997  .00025291  00000+0  26192-3 0  9992
2 66515  41.4742 216.5245 0001494  84.1343 275.9668 15.64106684  8533
